name,source,collection_date,satellite_number,classification,launch_year,launch_number,launch_piece,epoch_year,epoch_day,inclination_deg,right_ascension_deg,eccentricity,argument_of_perigee_deg,mean_anomaly_deg,mean_motion,orbital_period_minutes,approximate_altitude_km,mean_motion_derivative,mean_motion_second_derivative,drag_term,element_set_number,revolution_number,line1,line2,category
STARLINK-5331,celestrak_active,2025-07-29T17:08:40.682949,55280,U,2023,10,M,2025,210.5220782,69.998,247.2874,0.0003689,270.4923,89.5814,14.9833105,96.10693177585821,0,7.44e-06,0.0,0.00070137,999,13934,1 55280U 23010M   25210.52207820  .00000744  00000+0  70137-4 0  9998,2 55280  69.9980 247.2874 0003689 270.4923  89.5814 14.98331050139349,important
STARLINK-5298,celestrak_active,2025-07-29T17:08:40.682955,55281,U,2023,10,N,2025,210.49284222,69.9989,247.1965,0.0003732,266.6881,93.3851,14.98324672,96.10734087945393,0,-6.48e-06,0.0,-0.00046493000000000006,999,13934,1 55281U 23010N   25210.49284222 -.00000648  00000+0 -46493-4 0  9999,2 55281  69.9989 247.1965 0003732 266.6881  93.3851 14.98324672139344,important
STARLINK-5330,celestrak_active,2025-07-29T17:08:40.682961,55282,U,2023,10,P,2025,210.53471842,69.9983,246.9361,0.0004019,268.421,91.6489,14.98333162,96.10679630676158,0,2e-07,0.0,9.4986e-05,999,13935,1 55282U 23010P   25210.53471842  .00000020  00000+0  94986-5 0  9994,2 55282  69.9983 246.9361 0004019 268.4210  91.6489 14.98333162139354,important
STARLINK-5317,celestrak_active,2025-07-29T17:08:40.682966,55283,U,2023,10,Q,2025,210.48866448,69.998,247.1812,0.000362,268.8056,91.2689,14.98330905,96.1069410765441,0,-5e-07,0.0,3.6493000000000004e-05,999,13934,1 55283U 23010Q   25210.48866448 -.00000050  00000+0  36493-5 0  9992,2 55283  69.9980 247.1812 0003620 268.8056  91.2689 14.98330905139344,important
STARLINK-5337,celestrak_active,2025-07-29T17:08:40.682972,55284,U,2023,10,R,2025,210.53455389,69.9984,246.9348,0.0003693,268.3212,91.7524,14.98332175,96.10685961542539,0,-9.3e-07,0.0,1.9120999999999998e-07,999,13934,1 55284U 23010R   25210.53455389 -.00000093  00000+0  19121-7 0  9995,2 55284  69.9984 246.9348 0003693 268.3212  91.7524 14.98332175139343,important
STARLINK-5332,celestrak_active,2025-07-29T17:08:40.682977,55285,U,2023,10,S,2025,210.37572368,69.9989,207.4288,0.0003856,268.1097,91.962,14.98316781,96.10784703612019,0,9.09e-06,0.0,0.0008396200000000001,999,14119,1 55285U 23010S   25210.37572368  .00000909  00000+0  83962-4 0  9991,2 55285  69.9989 207.4288 0003856 268.1097  91.9620 14.98316781141194,important
STARLINK-5338,celestrak_active,2025-07-29T17:08:40.682983,55286,U,2023,10,T,2025,210.41750473,69.999,227.464,0.0004037,266.8332,93.2366,14.98334302,96.10672318439654,0,2.4e-06,0.0,0.00027916,999,13982,1 55286U 23010T   25210.41750473  .00000240  00000+0  27916-4 0  9997,2 55286  69.9990 227.4640 0004037 266.8332  93.2366 14.98334302139828,important
STARLINK-5341,celestrak_active,2025-07-29T17:08:40.682988,55287,U,2023,10,U,2025,210.42562723,69.9987,207.5299,0.0003585,267.8676,92.2072,14.98331094,96.10692895358146,0,-3.74e-06,0.0,-0.00023533,999,14031,1 55287U 23010U   25210.42562723 -.00000374  00000+0 -23533-4 0  9999,2 55287  69.9987 207.5299 0003585 267.8676  92.2072 14.98331094140317,important
STARLINK-5311,celestrak_active,2025-07-29T17:08:40.682994,55288,U,2023,10,V,2025,210.47192826,69.9984,227.2519,0.0003652,273.257,86.8171,14.98321626,96.10753626004194,0,7.38e-06,0.0,0.00069666,999,13983,1 55288U 23010V   25210.47192826  .00000738  00000+0  69666-4 0  9997,2 55288  69.9984 227.2519 0003652 273.2570  86.8171 14.98321626139832,important
STARLINK-5320,celestrak_active,2025-07-29T17:08:40.683000,55289,U,2023,10,W,2025,210.42168358,69.9991,227.4779,0.000368,266.095,93.9788,14.98329816,96.1070109279598,0,-4.58e-06,0.0,-0.00030549,999,13982,1 55289U 23010W   25210.42168358 -.00000458  00000+0 -30549-4 0  9995,2 55289  69.9991 227.4779 0003680 266.0950  93.9788 14.98329816139825,important
STARLINK-5266,celestrak_active,2025-07-29T17:08:40.683006,55290,U,2023,10,X,2025,210.48010327,69.9992,227.2797,0.0003747,268.7041,91.3689,14.98323039,96.10744562541564,0,-1.054e-05,0.0,-0.0008058400000000002,999,13983,1 55290U 23010X   25210.48010327 -.00001054  00000+0 -80584-4 0  9992,2 55290  69.9992 227.2797 0003747 268.7041  91.3689 14.98323039139834,important
STARLINK-5327,celestrak_active,2025-07-29T17:08:40.683012,55291,U,2023,10,Y,2025,210.43004012,69.9987,227.5055,0.000329,266.7424,93.3358,14.98327172,96.10718052171853,0,4.96e-06,0.0,0.00049332,999,13982,1 55291U 23010Y   25210.43004012  .00000496  00000+0  49332-4 0  9995,2 55291  69.9987 227.5055 0003290 266.7424  93.3358 14.98327172139821,important
STARLINK-5325,celestrak_active,2025-07-29T17:08:40.683017,55292,U,2023,10,Z,2025,210.46757418,69.9992,227.2374,0.0003619,263.2218,96.853,14.98327708,96.10714614108971,0,-1.281e-05,0.0,-0.00099598,999,13983,1 55292U 23010Z   25210.46757418 -.00001281  00000+0 -99598-4 0  9998,2 55292  69.9992 227.2374 0003619 263.2218  96.8530 14.98327708139833,important
STARLINK-5287,celestrak_active,2025-07-29T17:08:40.683023,55293,U,2023,10,AA,2025,210.47174419,69.9984,227.2519,0.0003916,266.7563,93.3148,14.98331792,96.10688418203169,0,1.31e-06,0.0,0.00018803000000000003,999,13983,1 55293U 23010AA  25210.47174419  .00000131  00000+0  18803-4 0  9995,2 55293  69.9984 227.2519 0003916 266.7563  93.3148 14.98331792139832,important
STARLINK-5286,celestrak_active,2025-07-29T17:08:40.683028,55294,U,2023,10,AB,2025,210.47614108,69.9984,247.1318,0.0003643,269.8925,90.1816,14.98332496,96.10683902566845,0,1.55e-06,0.0,0.00020810000000000002,999,13934,1 55294U 23010AB  25210.47614108  .00000155  00000+0  20810-4 0  9997,2 55294  69.9984 247.1318 0003643 269.8925  90.1816 14.98332496139349,important
STARLINK-5293,celestrak_active,2025-07-29T17:08:40.683033,55295,U,2023,10,AC,2025,210.51788512,69.9981,247.284,0.0003698,268.4643,91.6092,14.98330445,96.10697058218022,0,3.42e-06,0.0,0.00036434000000000005,999,13935,1 55295U 23010AC  25210.51788512  .00000342  00000+0  36434-4 0  9991,2 55295  69.9981 247.2840 0003698 268.4643  91.6092 14.98330445139355,important
STARLINK-5285,celestrak_active,2025-07-29T17:08:40.683039,55296,U,2023,10,AD,2025,210.45504706,69.9983,227.1925,0.0003649,268.923,91.1511,14.98332026,96.10686917266761,0,3.31e-06,0.0,0.00035549,999,14071,1 55296U 23010AD  25210.45504706  .00000331  00000+0  35549-4 0  9990,2 55296  69.9983 227.1925 0003649 268.9230  91.1511 14.98332026140712,important
STARLINK-5284,celestrak_active,2025-07-29T17:08:40.683044,55297,U,2023,10,AE,2025,210.46339595,69.9986,227.2211,0.0003784,267.7228,92.3497,14.98332237,96.10685563858692,0,3.92e-06,0.0,0.00040617,999,13983,1 55297U 23010AE  25210.46339595  .00000392  00000+0  40617-4 0  9993,2 55297  69.9986 227.2211 0003784 267.7228  92.3497 14.98332237139830,important
STARLINK-5270,celestrak_active,2025-07-29T17:08:40.683052,55299,U,2023,10,AG,2025,210.45087168,69.9985,227.18,0.0003512,266.9402,93.1355,14.98323396,96.10742272624834,0,-1.282e-05,0.0,-0.0009968400000000001,999,14071,1 55299U 23010AG  25210.45087168 -.00001282  00000+0 -99684-4 0  9999,2 55299  69.9985 227.1800 0003512 266.9402  93.1355 14.98323396140715,important
STARLINK-5308,celestrak_active,2025-07-29T17:08:40.683058,55300,U,2023,10,AH,2025,210.44670163,69.9988,227.162,0.0003156,273.8599,86.2199,14.98343392,96.10614013372978,0,4.29e-06,0.0,0.00043760000000000007,999,13983,1 55300U 23010AH  25210.44670163  .00000429  00000+0  43760-4 0  9998,2 55300  69.9988 227.1620 0003156 273.8599  86.2199 14.98343392139837,important
STARLINK-5321,celestrak_active,2025-07-29T17:08:40.683064,55302,U,2023,10,AK,2025,210.45922102,69.9983,227.2047,0.0003934,266.7174,93.3535,14.98332708,96.10682542745373,0,8.52e-06,0.0,0.0007917900000000001,999,13983,1 55302U 23010AK  25210.45922102  .00000852  00000+0  79179-4 0  9997,2 55302  69.9983 227.2047 0003934 266.7174  93.3535 14.98332708139834,important
STARLINK-5322,celestrak_active,2025-07-29T17:08:40.683069,55303,U,2023,10,AL,2025,210.5303787,69.9984,246.92,0.0003944,268.681,91.3897,14.98332172,96.10685980785308,0,1.19e-06,0.0,0.0001774,999,13935,1 55303U 23010AL  25210.53037870  .00000119  00000+0  17740-4 0  9998,2 55303  69.9984 246.9200 0003944 268.6810  91.3897 14.98332172139355,important
STARLINK-5318,celestrak_active,2025-07-29T17:08:40.683075,55304,U,2023,10,AM,2025,210.44252038,69.9983,227.1456,0.0003662,266.5635,93.5105,14.98324827,96.10733093725877,0,-1.648e-05,0.0,-0.0013032999999999999,999,13983,1 55304U 23010AM  25210.44252038 -.00001648  00000+0 -13033-3 0  9994,2 55304  69.9983 227.1456 0003662 266.5635  93.5105 14.98324827139835,important
STARLINK-5316,celestrak_active,2025-07-29T17:08:40.683080,55305,U,2023,10,AN,2025,210.43837865,69.9987,227.5384,0.0003944,267.1605,92.9102,14.98330542,96.10696436033805,0,1.2e-07,0.0,8.8188e-05,999,13983,1 55305U 23010AN  25210.43837865  .00000012  00000+0  88188-5 0  9998,2 55305  69.9987 227.5384 0003944 267.1605  92.9102 14.98330542139832,important
STARLINK-5295,celestrak_active,2025-07-29T17:08:40.683085,55306,U,2023,10,AP,2025,210.40893844,69.9989,207.56,0.00033,272.8111,87.267,14.98333407,96.10678059185796,0,1.98e-06,0.0,0.00024371,999,14032,1 55306U 23010AP  25210.40893844  .00000198  00000+0  24371-4 0  9993,2 55306  69.9989 207.5600 0003300 272.8111  87.2670 14.98333407140321,important
STARLINK-5288,celestrak_active,2025-07-29T17:08:40.683091,55307,U,2023,10,AQ,2025,210.41310984,69.9991,207.5747,0.0003893,265.6261,94.4453,14.98332285,96.10685255974445,0,-6.6e-07,0.0,2.2419e-05,999,14032,1 55307U 23010AQ  25210.41310984 -.00000066  00000+0  22419-5 0  9991,2 55307  69.9991 207.5747 0003893 265.6261  94.4453 14.98332285140322,important
